NORAD_CAT_ID,OBJECT_NAME,OBJECT_TYPE,EPOCH,MEAN_MOTION,ECCENTRICITY,INCLINATION,RA_OF_ASC_NODE,ARG_OF_PERICENTER,MEAN_ANOMALY,BSTAR,MEAN_MOTION_DOT,MEAN_MOTION_DDOT,TLE_LINE0,TLE_LINE1,TLE_LINE2,SEMIMAJOR_AXIS,PERIOD,APOGEE,PERIGEE,DECAYED
53258.0,STARLINK-4127,PAYLOAD,2023-09-30 02:18:29,15.08845575,0.0001251,53.2149,236.6382,103.0232,257.09,0.00024869,3.673e-05,0.0,0 STARLINK-4127,1 53258U 22086S   23273.09618055  .00003673  00000-0  24869-3 0  9993,2 53258  53.2149 236.6382 0001251 103.0232 257.0900 15.08845575 66282,6917.863,95.437,540.594,538.863,0.0
53258.0,STARLINK-4127,PAYLOAD,2023-10-01 03:44:40,15.08837855,0.0001353,53.2155,231.88,95.4199,264.6947,-7.0788e-05,-1.414e-05,0.0,0 STARLINK-4127,1 53258U 22086S   23274.15602415 -.00001414  00000-0 -70788-4 0  9999,2 53258  53.2155 231.8800 0001353  95.4199 264.6947 15.08837855 66445,6917.887,95.438,540.688,538.816,0.0
53258.0,STARLINK-4127,PAYLOAD,2023-10-01 21:13:55,15.08839044,0.000155,53.2168,228.6099,88.4708,271.6462,0.00013456,1.854e-05,0.0,0 STARLINK-4127,1 53258U 22086S   23274.88466696  .00001854  00000-0  13456-3 0  9992,2 53258  53.2168 228.6099 0001550  88.4708 271.6462 15.08839044 66734,6917.883,95.438,540.821,538.676,0.0
53258.0,STARLINK-4127,PAYLOAD,2023-10-02 06:46:13,15.0884898,0.000157,53.2165,226.8251,91.5763,268.5409,0.00033594,5.064e-05,0.0,0 STARLINK-4127,1 53258U 22086S   23275.28210329  .00005064  00000-0  33594-3 0  9999,2 53258  53.2165 226.8251 0001570  91.5763 268.5409 15.08848980 66611,6917.853,95.437,540.804,538.632,0.0
53258.0,STARLINK-4127,PAYLOAD,2023-10-03 03:26:14,15.08841013,0.0001242,53.2156,222.9605,93.7282,266.3852,0.0002047,2.972e-05,0.0,0 STARLINK-4127,1 53258U 22086S   23276.14322556  .00002972  00000-0  20470-3 0  9995,2 53258  53.2156 222.9605 0001242  93.7282 266.3852 15.08841013 66749,6917.877,95.437,540.601,538.883,0.0
53258.0,STARLINK-4127,PAYLOAD,2023-10-03 05:01:37,15.08849683,0.0001478,53.2169,222.6628,99.3639,260.7521,0.0002626,3.895e-05,0.0,0 STARLINK-4127,1 53258U 22086S   23276.20946141  .00003895  00000-0  26260-3 0  9992,2 53258  53.2169 222.6628 0001478  99.3639 260.7521 15.08849683 66757,6917.851,95.437,540.738,538.693,0.0
53258.0,STARLINK-4127,PAYLOAD,2023-10-04 04:52:25,15.0883777,0.0001384,53.2182,218.206,98.0787,262.0362,9.7302e-06,-1.33e-06,0.0,0 STARLINK-4127,1 53258U 22086S   23277.20306966 -.00000133  00000-0  97302-5 0  9998,2 53258  53.2182 218.2060 0001384  98.0787 262.0362 15.08837770 66908,6917.887,95.438,540.71,538.795,0.0
53258.0,STARLINK-4127,PAYLOAD,2023-10-04 12:49:20,15.08839914,0.0001448,53.2177,216.7197,101.9683,258.1471,-6.8559e-06,-3.97e-06,0.0,0 STARLINK-4127,1 53258U 22086S   23277.53426903 -.00000397  00000-0 -68559-5 0  9993,2 53258  53.2177 216.7197 0001448 101.9683 258.1471 15.08839914 67131,6917.881,95.438,540.747,538.744,0.0
53258.0,STARLINK-4127,PAYLOAD,2023-10-05 03:07:48,15.08860297,0.0001498,53.2159,214.0406,95.8782,264.2381,0.00028919,4.32e-05,0.0,0 STARLINK-4127,1 53258U 22086S   23278.13041969  .00004320  00000-0  28919-3 0  9997,2 53258  53.2159 214.0406 0001498  95.8782 264.2381 15.08860297 67047,6917.818,95.436,540.72,538.647,0.0
53258.0,STARLINK-4127,PAYLOAD,2023-10-05 12:40:07,15.08841001,0.0001543,53.216,212.2556,90.5677,269.5492,7.1547e-06,-1.74e-06,0.0,0 STARLINK-4127,1 53258U 22086S   23278.52786691 -.00000174  00000-0  71547-5 0  9999,2 53258  53.2160 212.2556 0001543  90.5677 269.5492 15.08841001 67280,6917.877,95.437,540.81,538.675,0.0
53258.0,STARLINK-4127,PAYLOAD,2023-10-06 12:30:54,15.08845708,0.000193,53.2157,207.7953,74.0563,286.0642,0.00015814,2.23e-05,0.0,0 STARLINK-4127,1 53258U 22086S   23279.52146965  .00002230  00000-0  15814-3 0  9991,2 53258  53.2157 207.7953 0001930  74.0563 286.0642 15.08845708 67433,6917.863,95.437,541.063,538.393,0.0
53258.0,STARLINK-4127,PAYLOAD,2023-10-07 01:14:00,15.08830357,0.0001334,53.2144,205.4193,81.2359,278.8784,-4.9413e-05,-1.074e-05,0.0,0 STARLINK-4127,1 53258U 22086S   23280.05139784 -.00001074  00000-0 -49413-4 0  9992,2 53258  53.2144 205.4193 0001334  81.2359 278.8784 15.08830357 67330,6917.91,95.438,540.698,538.852,0.0
53258.0,STARLINK-4127,PAYLOAD,2023-10-07 04:24:46,15.08848285,0.0001518,53.2162,204.8216,81.1752,278.9412,7.8768e-05,9.66e-06,0.0,0 STARLINK-4127,1 53258U 22086S   23280.18386891  .00000966  00000-0  78768-4 0  9991,2 53258  53.2162 204.8216 0001518  81.1752 278.9412 15.08848285 67359,6917.855,95.437,540.77,538.67,0.0
53258.0,STARLINK-4127,PAYLOAD,2023-10-07 12:21:41,15.08849499,0.0001667,53.2169,203.3346,91.4232,268.6951,-0.00020421,-3.537e-05,0.0,0 STARLINK-4127,1 53258U 22086S   23280.51506740 -.00003537  00000-0 -20421-3 0  9996,2 53258  53.2169 203.3346 0001667  91.4232 268.6951 15.08849499 67583,6917.851,95.437,540.87,538.563,0.0
53258.0,STARLINK-4127,PAYLOAD,2023-10-07 18:43:15,15.08838937,0.000179,53.2162,202.1466,83.9156,276.204,0.00010119,1.323e-05,0.0,0 STARLINK-4127,1 53258U 22086S   23280.78003627  .00001323  00000-0  10119-3 0  9993,2 53258  53.2162 202.1466 0001790  83.9156 276.2040 15.08838937 67448,6917.884,95.438,540.987,538.51,0.0
53258.0,STARLINK-4127,PAYLOAD,2023-10-08 01:04:47,15.08849908,0.0001461,53.2143,200.9572,92.2362,267.8798,0.00013522,1.865e-05,0.0,0 STARLINK-4127,1 53258U 22086S   23281.04498963  .00001865  00000-0  13522-3 0  9996,2 53258  53.2143 200.9572 0001461  92.2362 267.8798 15.08849908 67488,6917.85,95.437,540.726,538.704,0.0
53258.0,STARLINK-4127,PAYLOAD,2023-10-08 12:12:29,15.0883677,0.0001855,53.2177,198.8735,85.8798,274.2406,6.9512e-06,-1.78e-06,0.0,0 STARLINK-4127,1 53258U 22086S   23281.50867667 -.00000178  00000-0  69512-5 0  9997,2 53258  53.2177 198.8735 0001855  85.8798 274.2406 15.08836770 67738,6917.89,95.438,541.039,538.472,0.0
53258.0,STARLINK-4127,PAYLOAD,2023-10-09 00:55:34,15.08850831,0.0001406,53.2161,196.4939,94.608,265.5073,0.00020574,2.989e-05,0.0,0 STARLINK-4127,1 53258U 22086S   23282.03858895  .00002989  00000-0  20574-3 0  9993,2 53258  53.2161 196.4939 0001406  94.6080 265.5073 15.08850831 67631,6917.847,95.437,540.685,538.74,0.0
53258.0,STARLINK-4127,PAYLOAD,2023-10-09 04:06:20,15.0885244,0.0001443,53.2159,195.8986,98.2311,261.8845,0.0002856,4.262e-05,0.0,0 STARLINK-4127,1 53258U 22086S   23282.17106823  .00004262  00000-0  28560-3 0  9994,2 53258  53.2159 195.8986 0001443  98.2311 261.8845 15.08852440 67837,6917.842,95.437,540.706,538.709,0.0
53258.0,STARLINK-4127,PAYLOAD,2023-10-09 18:24:49,15.08835876,0.0001932,53.2141,193.2255,85.0277,275.0935,1.0079e-05,-1.28e-06,0.0,0 STARLINK-4127,1 53258U 22086S   23282.76723791 -.00000128  00000-0  10079-4 0  9993,2 53258  53.2141 193.2255 0001932  85.0277 275.0935 15.08835876 67748,6917.893,95.438,541.095,538.421,0.0
53258.0,STARLINK-4127,PAYLOAD,2023-10-09 21:35:35,15.08835921,0.0001658,53.2138,192.6299,98.1894,261.9286,1.2736e-05,-8.5e-07,0.0,0 STARLINK-4127,1 53258U 22086S   23282.89971765 -.00000085  00000-0  12736-4 0  9997,2 53258  53.2138 192.6299 0001658  98.1894 261.9286 15.08835921 67946,6917.893,95.438,540.905,538.611,0.0
53258.0,STARLINK-4127,PAYLOAD,2023-10-10 03:57:07,15.08845124,0.0001461,53.2164,191.4379,90.4495,269.6665,0.00029848,4.466e-05,0.0,0 STARLINK-4127,1 53258U 22086S   23283.16467536  .00004466  00000-0  29848-3 0  9991,2 53258  53.2164 191.4379 0001461  90.4495 269.6665 15.08845124 67981,6917.865,95.437,540.74,538.719,0.0
53258.0,STARLINK-4127,PAYLOAD,2023-10-10 21:26:22,15.08835456,0.0001464,53.2163,188.1654,99.058,261.0578,0.00014903,2.084e-05,0.0,0 STARLINK-4127,1 53258U 22086S   23283.89332041  .00002084  00000-0  14903-3 0  9993,2 53258  53.2163 188.1654 0001464  99.0580 261.0578 15.08835456 68091,6917.894,95.438,540.772,538.746,0.0
53258.0,STARLINK-4127,PAYLOAD,2023-10-11 02:12:32,15.0884389,0.0001404,53.2174,187.2762,88.6417,271.4736,0.00035649,5.391e-05,0.0,0 STARLINK-4127,1 53258U 22086S   23284.09203740  .00005391  00000-0  35649-3 0  9993,2 53258  53.2174 187.2762 0001404  88.6417 271.4736 15.08843890 67945,6917.868,95.437,540.705,538.762,0.0
53258.0,STARLINK-4127,PAYLOAD,2023-10-11 10:09:27,15.08844266,0.0001409,53.2169,185.7893,92.7384,267.377,0.00042607,6.5e-05,0.0,0 STARLINK-4127,1 53258U 22086S   23284.42323859  .00006500  00000-0  42607-3 0  9999,2 53258  53.2169 185.7893 0001409  92.7384 267.3770 15.08844266 68177,6917.867,95.437,540.707,538.758,0.0
53258.0,STARLINK-4127,PAYLOAD,2023-10-11 18:06:23,15.08842161,0.0002371,53.2169,184.3043,83.6106,276.5156,0.00029552,4.418e-05,0.0,0 STARLINK-4127,1 53258U 22086S   23284.75444402  .00004418  00000-0  29552-3 0  9993,2 53258  53.2169 184.3043 0002371  83.6106 276.5156 15.08842161 68047,6917.874,95.437,541.379,538.099,0.0
53258.0,STARLINK-4127,PAYLOAD,2023-10-12 10:00:15,15.08846186,0.0001638,53.2173,181.3328,96.8957,263.2222,0.00072581,0.00011284,0.0,0 STARLINK-4127,1 53258U 22086S   23285.41684436  .00011284  00000-0  72581-3 0  9999,2 53258  53.2173 181.3328 0001638  96.8957 263.2222 15.08846186 68329,6917.861,95.437,540.86,538.593,0.0
53258.0,STARLINK-4127,PAYLOAD,2023-10-12 22:43:20,15.08846419,0.0001603,53.2171,178.9539,100.6605,259.4568,0.00039002,5.926e-05,0.0,0 STARLINK-4127,1 53258U 22086S   23285.94676304  .00005926  00000-0  39002-3 0  9999,2 53258  53.2171 178.9539 0001603 100.6605 259.4568 15.08846419 68407,6917.861,95.437,540.835,538.617,0.0
53258.0,STARLINK-4127,PAYLOAD,2023-10-13 00:18:43,15.08851388,0.0001674,53.2175,178.6575,103.3822,256.7357,0.00048642,7.464e-05,0.0,0 STARLINK-4127,1 53258U 22086S   23286.01300169  .00007464  00000-0  48642-3 0  9990,2 53258  53.2175 178.6575 0001674 103.3822 256.7357 15.08851388 68235,6917.846,95.437,540.869,538.553,0.0
53258.0,STARLINK-4127,PAYLOAD,2023-10-13 09:51:01,15.08851837,0.0001338,53.2154,176.8712,86.4214,273.6931,0.00036959,5.601e-05,0.0,0 STARLINK-4127,1 53258U 22086S   23286.41043912  .00005601  00000-0  36959-3 0  9993,2 53258  53.2154 176.8712 0001338  86.4214 273.6931 15.08851837 68479,6917.844,95.437,540.635,538.784,0.0
